Hospital,Region,PostalCode,Locality,Lat,Lng,Type
PCF Sparkletots Preschool @ Tanjong Pagar-Tiong Bahru Blk 1E (KN),Central,85501,"1E, Cantoment Road",1.280168,103.830098,Childcare
Artskidz Preschool,Central,88702,"10, Raeburn Park",1.273353,103.831106,Childcare
PCF Sparkletots Preschool @ Telok Blangah Blk 78A (DS),Central,101078,"78A, Telok Blangah Street 32",1.273317,103.809226,Childcare
Nanyang Children School,Central,102078,"78B, Telok Blangah Street 32",1.273680,103.808951,Childcare
Bethesda (Depot Walk) Kindergarten,Central,109590,"10, Depot Walk",1.281884,103.814121,Childcare
House on the Hill Montessori Pre-School,Central,118733,"396, Pasir Panjang Road",1.278017,103.787244,Childcare
Little Seeds Preschool @ Pasir Panjang Hill Brethren Church,Central,118827,"3, Pasir Panjang Hill",1.280450,103.783539,Childcare
Chengzhu Mandarin Kindergarten,Central,138639,"35, Rochester Drive",1.305875,103.785777,Childcare
PCF Sparkletots Preschool @ Buona Vista Blk 54 (DS),Central,142054,"54, Commonwealth Drive",1.301484,103.794676,Childcare
Damien Centre Kindergarten,Central,149603,"1, Commonwealth Drive",1.295101,103.796640,Childcare
Faith Kindergarten,Central,149604,"400, Commonwealth Drive",1.302621,103.795338,Childcare
PCF Sparkletots Preschool @ Queenstown Blk 3 (KN),Central,150003,"3, Jalan Bukit Merah",1.287024,103.804587,Childcare
PCF Sparkletots Preschool @ Radin Mas Blk 70A (KN),Central,151070,"70A, Redhill Close",1.274621,103.820645,Childcare
PCF Sparkletots Preschool @ Henderson-Dawson Blk 124A (KN),Central,151124,"124A, Bukit Merah View",1.285072,103.820661,Childcare
Rainbow Cove Montessori,Central,159948,"354, Alexandra Road",1.274225,103.799197,Childcare
Alexandra Hospital,Central,159964,"378, Alexandra Rd",1.286600,103.801300,Hospital
Repton Schoolhouse,Central,159971,"321, Alexandra Road",1.287315,103.803039,Childcare
PCF Sparkletots Preschool @ Tanjong Pagar-Tiong Bahru Blk 130 (KN),Central,160130,"130, Kim Tian Road",1.278380,103.831038,Childcare
Chinese Kindergarten,Central,169053,"256, Outram Road",1.285749,103.833736,Childcare
Raffles Hospital,Central,188770,"585, North Bridge Rd",1.301200,103.857300,Hospital
PCF Sparkletots Preschool @ Kampong Glam Blk 462 (KN),Central,190462,"462, Crawford Lane",1.304635,103.859016,Childcare
PCF Sparkletots Preschool @ Moulmein-Cairnhill Blk 10 (DS),Central,210010,"10, Gloucester Road",1.313886,103.849950,Childcare
Farrer Park Hospital,Central,217562,"1, Farrer Park Station Road",1.313100,103.854200,Hospital
Mount Elizabeth Hospital,Central,228501,"3, Mount Elizabeth",1.305600,103.835500,Hospital
Masterminds Kindergarten,Central,229863,"204, Bukit Timah Road",1.312218,103.844192,Childcare
KK Women's and Children's Hospital,Central,229899,"100, Bukit Timah Rd",1.310700,103.846800,Hospital
Coco-Ro learning House,Central,239850,"20, Devonshire Road",1.298239,103.835736,Childcare
Grace House @ Tanglin,Central,247960,"355, Tanglin Road",1.294304,103.814128,Childcare
Wee Care Kindergarten,Central,247964,"56, Tanglin Road",1.305625,103.820751,Childcare
White Lodge Kindergarten (Phoenix Park),Central,247975,"310, Tanglin Road",1.298239,103.812645,Childcare
Gleneagles Hospital,Central,258500,"6A, Napier Road",1.307400,103.820100,Hospital
Maris Stella Kindergarten,Central,258851,"49B, Holland Road",1.308716,103.806452,Childcare
Nanyang Kindergarten,Central,268155,"118, King's Road",1.317952,103.803595,Childcare
Bibinogs Preschool K.A.,Central,269695,"559, Bukit Timah Road",1.322853,103.811154,Childcare
PCF Sparkletots Preschool @ Buona Vista Blk 4 (DS),Central,271004,"4, Holland Close",1.307972,103.793583,Childcare
Montessori Children's House Kindergarten,Central,278685,"886, Old Holland Road",1.332144,103.788512,Childcare
Little Ones Kindergarten,Central,278886,"58, Holland Grove Drive",1.313989,103.777835,Childcare
Blue House International School,Central,287988,"2, Turf Club Road",1.336123,103.794403,Childcare
Kizroo Kindergarten,Central,287994,"200, Turf Club Road",1.338441,103.791078,Childcare
Swallows And Amazons Kindergarten,Central,287994,"200, Turf Club Road",1.336346,103.791825,Childcare
Grace House @ TRBK PTE LTD,Central,307584,"45, Thomson Road",1.315225,103.842518,Childcare
GUG The Kindergarten,Central,307591,"101, Thomson Road",1.334789,103.857684,Childcare
MFC Kindergarten (Newton),Central,307970,"43, Newton Road",1.318018,103.839100,Childcare
Newton Kindergarten,Central,307995,"16, Newton Road",1.313860,103.838619,Childcare
Tan Tock Seng Hospital,Central,308433,"11, Jln Tan Tock Seng",1.321300,103.845800,Hospital
Far Eastern Kindergarten,Central,309063,"9A, Gilstead Road",1.315453,103.836062,Childcare
St. James' Church Kindergarten (Gilstead),Central,309070,"25, Gilstead Road",1.316689,103.836630,Childcare
Barker Road Methodist Church Kindergarten,Central,309936,"70, Barker Road",1.318913,103.832133,Childcare
PCF Sparkletots Preschool @ Toa Payoh West-Balestier Blk 45 (DS),Central,310045,"45, Lorong 5 Toa Payoh",1.335855,103.851537,Childcare
Jessin Kindergarten,Central,310085,"85B, Lorong 4 Toa Payoh",1.336276,103.846420,Childcare
PCF Sparkletots Preschool @ Toa Payoh Central Blk 97 (KN),Central,310097,"97, Lorong 3 Toa Payoh",1.332078,103.857422,Childcare
PCF Sparkletots Preschool @ Toa Payoh Central Blk 157 (KN),Central,310157,"157, Lorong 1 Toa Payoh",1.332280,103.843304,Childcare
Marymount Kindergarten,Central,319253,"9, Toa Payoh Lorong 8",1.340601,103.854905,Childcare
Toa Payoh Methodist Church Kindergarten,Central,319641,"480, Lorong 2 Toa Payoh",1.334064,103.844260,Childcare
Brainfit School House Pte. Ltd.,Central,329983,"18, Ah Hood Road",1.327025,103.844277,Childcare
Calvary Baptist Kindergarten,Central,347592,"48, Wan Tho Avenue",1.332306,103.872000,Childcare
PCF Sparkletots Preschool @ Macpherson Blk 31 (KN),Central,370031,"31, Balam Road",1.330055,103.883507,Childcare
PCF Sparkletots Preschool @ Macpherson Blk 108 (KN),Central,380108,"108, Aljunied Cres",1.319230,103.883241,Childcare
Bethel Kinderlites,Central,380114,"114, Aljunied Avenue 2",1.321746,103.884633,Childcare
Raffles Montessori Kindergarten (Aljunied),Central,388375,"46, Lorong 23 Geylang",1.315247,103.879277,Childcare
Iroha Kindergarten,Central,397999,"231, Mountbatten Road",1.308822,103.878141,Childcare
Jamiyah Kindergarten,Central,399006,"31, Lorong 12 Geylang",1.309935,103.878147,Childcare
Chen Li Kindergarten,Central,399711,"76, Guillemard Road",1.309935,103.878147,Childcare
Divinity Kindergarten,Central,408570,"70, Ubi Crescent",1.343754,103.851615,Childcare
Etonhouse International Research Preschool,Central,436736,"716, Mountbatten Road",1.300579,103.884491,Childcare
PCF Sparkletots Preschool @ Marine Parade Blk 46 (DS),Central,440046,"46, Marine Crescent",1.305054,103.910649,Childcare
Tung Ling Kindergarten,Central,449274,"145, Marine Parade",1.304314,103.904434,Childcare
Kampung Siglap Mosque Kindergarten,Central,449283,"451, Marine Parade Road",1.309749,103.925345,Childcare
Bethesda (Katong) Kindergarten,Central,456929,"2, La Salle Street",1.316681,103.916090,Childcare
Bethany Kindergarten,Central,534934,"301, Upper Paya Lebar Road",1.344423,103.880027,Childcare
Ramakrishna Mission Sarada Kindergarten,Central,539784,"179, Bartley Road",1.343925,103.877265,Childcare
PCF Sparkletots Preschool @ Bishan East-Thomson Blk 197 (KN),Central,570197,"197, Bishan Street 13",1.348850,103.848305,Childcare
Callidus Preschool,Central,570229,"229, Bishan Street 23",1.357572,103.843906,Childcare
Totsville Montessori Kindergarten (Bishan),Central,570230,"230, Bishan Street 23",1.357865,103.843267,Childcare
PCF Sparkletots Preschool @ Bishan North Blk 231 (DS),Central,570231,"231, Bishan Street 23",1.357349,103.843541,Childcare
P & J Kindergarten,Central,574141,"35, Windsor Park Road",1.357252,103.824070,Childcare
Agape Montessori Kidz Kindergarten,Central,574457,"11, Thomson Hills Drive",1.377748,103.832491,Childcare
Mount Alvernia Hospital,Central,574623,"820, Thomson Rd",1.341900,103.837900,Hospital
Zion Bishan Kindergarten,Central,579792,"4, Bishan Street 13",1.347126,103.852711,Childcare
Chatsworth Preschool,North-East,797641,"3, Piccadilly Circus",1.317951,103.735743,Childcare
Pasir Panjang Hill Church Kindergarten,East,118827,"3, Pasir Panjang Hill",1.280349,103.78358630,Childcare
Singapore General Hospital,East,169608,Outram Rd,1.279590,103.83589000,Hospital
White Lodge Kindergarten (East Coast),East,399719,"102, Guillemard Road",1.309829,103.88034690,Childcare
PCF Sparkletots Preschool @ Geylang Serai Blk 11 (KN),East,400011,"11, Eunos Cresent",1.309829,103.87378080,Childcare
PCF Sparkletots Preschool @ Kembangan Chai Chee Blk 326 (KN),East,400326,"326, Ubi Avenue 1",1.325050,103.90113780,Childcare
PCF Sparkletots Preschool @ Kembangan Chai Chee Blk 116 (DS),East,410116,"116, Lengkong Tiga",1.325050,103.90989260,Childcare
Bethesda Chapel Kindergarten,East,416913,"27, Lorong Melayu",1.320670,103.90783530,Childcare
Pu Hui Kindergarten,East,426603,"8, Lorong 102 Changi Road",1.316343,103.89834480,Childcare
Parkway East Hospital,East,427990,"321, Joo Chiat Pl",1.315100,103.90900000,Hospital
Children's Vineyard Kindergarten,East,428102,"42, Joo Chiat Lane",1.316343,103.86551380,Childcare
Dreamkids Kindergarten @ East Gate Pte Ltd,East,428766,"46, East Coast Road",1.304379,103.90116430,Childcare
Dynamic World Montessori Preschool,East,428951,"292, East Coast Road",1.308138,103.90708990,Childcare
NAFA Arts Preschool,Central,189655,"80, Bencoolen Street",1.304804,103.86541800,Childcare
My Prep School,East,448910,"9, Siglap Road",1.304804,103.86541800,Childcare
LittleSparks Montessori Kindergarten,East,456192,"20, Siglap Drive",1.304804,103.86541800,Childcare
PCF Sparkletots Preschool @ Fengshan Blk 126 (DS),East,460126,"126, Bedok North Street 2",1.328294,103.93647830,Childcare
PCF Sparkletots Preschool @ Kampong Chai Chee Blk 135 (KN),East,460135,"135, Bedok North Street 2",1.330270,103.93391700,Childcare
PCF Sparkletots Preschool @ Siglap Blk 170 (KN),East,460170,"170, Bedok South Road",1.320860,103.94309420,Childcare
PCF Sparkletots Preschool @ Kaki Bukit Blk 519 (KN),East,460519,"519, Bedok North Avenue 1",1.330932,103.92608020,Childcare
PCF Sparkletots Preschool @ Kaki Bukit Blk 526 (KN),East,460526,"526, Bedok North Street 3",1.334214,103.92693840,Childcare
PCF Sparkletots Preschool @ Bedok Blk 30 (DS),East,461030,"30, New Upper Changi Road",1.323619,103.93427750,Childcare
Holy Grace Kindergarten,East,466484,"408-B, Upper East Coast Road",1.314221,103.93733930,Childcare
Gate Junior Preschool,East,467905,"46, Limau Garden",1.314220,103.86948720,Childcare
Bedok Lutheran Church Kindergarten,East,469315,"485, Bedok South Avenue 2",1.321067,103.93581020,Childcare
Bedok Methodist Church Kindergarten,East,469371,"86, Bedok Road",1.323675,103.95160830,Childcare
Bethesda (Bedok-Tampines) Kindergarten,East,469717,"300, Bedok North Avenue 3",1.331242,103.93257030,Childcare
Al - Ansar Mosque Kindergarten,East,469751,"155, Bedok North Avenue 1",1.327060,103.92410380,Childcare
PCF Sparkletots Preschool @ Eunos Blk 122 (KN),East,470122,"122, Bedok Reservoir Road",1.335773,103.80203120,Childcare
PCF Sparkletots Preschool @ Eunos Blk 616 (KN),East,470616,"616, Bedok Reservoir Road",1.331972,103.91292730,Childcare
PCF Sparkletots Preschool @ Bedok Reservoir Punggol Blk 713 (DS),East,470713,"713, Bedok Reservoir Road",1.336995,103.92316250,Childcare
Paper Scissors Stone Montessori Kindergarten (Bedok Reservoir Branch),East,470718,"718, Bedok Reservoir Road",1.336995,103.92316250,Childcare
PCF Sparkletots Preschool @ Pasir Ris East Blk 216 (KN),East,510216,"216, Pasir Ris Street 21",1.369030,103.95871830,Childcare
Brainy Bunch International Montessori (Pasir Ris),East,510273,"273, Pasir Ris Street 21",1.359128,103.88935290,Childcare
Al - Amin Preschool (Pasir Ris),East,510570,"570, Pasir Ris Street 53",1.363740,103.94416480,Childcare
Zulfa Kindergarten @ Pasir Ris,East,510626,"626, Pasir Ris Drive 3",1.379813,103.93874620,Childcare
Sri Sathya Sai Kindergarten,East,510716,"716, Pasir Ris St 72",1.383026,103.93463530,Childcare
PCF Sparkletots Preschool @ Pasir Ris West Blk 738 (KN),East,510738,"738, Pasir Ris Drive 10",1.379068,103.93441010,Childcare
Hanis Montessori Kindergarten (Pasir Ris),East,510775,"775, Pasir Ris Street 71",1.374410,103.93450330,Childcare
Al - Istighfar Mosque Kindergarten,East,518239,"2, Pasir Ris Walk",1.370971,103.96192160,Childcare
Bethesda (Pasir Ris) Kindergarten,East,518458,"11, Pasir Ris Drive 2",1.367897,103.96220230,Childcare
Kidz Meadow Kindergarten,East,519108,"102, Pasir Ris Road",1.381692,103.89418490,Childcare
ACES Montessori Kidz Kindergarten,East,519457,"1, Pasir Ris Drive 4",1.368478,103.95940990,Childcare
PCF Sparkletots Preschool @ Changi-Simei Blk 119 (KN),East,520119,"119, Simei Street 1",1.343875,103.94996820,Childcare
PCF Sparkletots Preschool @ Changi-Simei Blk 131 (KN),East,520131,"131, Simei Street 1",1.345435,103.95165270,Childcare
PCF Sparkletots Preschool @ Tampines West Blk 140 (DS),East,520140,"140, Tampines Street 12",1.347674,103.94158530,Childcare
PCF Sparkletots Preschool @ Tampines East Blk 261 (KN),East,520261,"261, Tampines Street 21",1.354257,103.94864730,Childcare
PCF Sparkletots Preschool @ Tampines-Changkat Blk 284 (KN),East,520284,"284, Tampines Street 22",1.349099,103.95039330,Childcare
PCF Sparkletots Preschool @ Tampines-Changkat Blk 318 (KN),East,520318,"318, Tampines Street 33",1.356818,103.95015160,Childcare
Creative Twinkles Preschool,East,520354,"354, Tampines Street 33",1.353034,103.95963970,Childcare
Hanis Montessori Kindergarten (Tampines),East,520374,"374, Tampines Street 34",1.356818,103.95671770,Childcare
Mahad Al - Nasry Kindergarten,East,520476,"476, Tampines Street 44",1.360301,103.91721730,Childcare
PCF Sparkletots Preschool @ Tampines North Blk 483 (KN),East,520483,"483, Tampines Street 43",1.360301,103.95114270,Childcare
PCF Sparkletots Preschool @ Tampines Central Blk 725 (DS),East,520725,"725, Tampines Street 71",1.356957,103.93320160,Childcare
Cavenur Kindergarten Pte. Ltd.,East,520741,"741, Tampines Street 72",1.360189,103.93092130,Childcare
PCF Sparkletots Preschool @ Tampines Central Blk 856 (KN),East,520856,"856, Tampines Street 82",1.354741,103.93355480,Childcare
3House Kindergarten (Tampines),East,520891,"891, Tampines Ave 8",1.350312,103.92934010,Childcare
PCF Sparkletots Preschool @ Tampines-Changkat Blk 106 (DS),East,521106,"106, Tampines Street 11",1.358269,103.94983320,Childcare
Moppeteers Kinderworld,East,522497,"497C, Tampines Street 45",1.358269,103.95639930,Childcare
British Council (Singapore) Pre-school,East,528729,"11, Tampines Concourse",1.356413,103.93887650,Childcare
Soka Kindergarten,East,528888,"7, Tampines Street 92",1.344633,103.94115930,Childcare
Hope Community Kindergarten (Tampines),East,529151,"20, Tampines Street 43",1.361418,103.95000800,Childcare
Josiah Montessori Kindergarten,East,529284,"5, Tampines Street 32",1.324533,103.87506190,Childcare
Al - Amin Pre-School,East,529287,"2, Tampines Street 32",1.354358,103.95773120,Childcare
Church Of Holy Trinity Kindergarten,East,529455,"20, Tampines Street 11",1.348844,103.94710710,Childcare
Darul Ghufran Mosque Kindergarten,East,529651,"503, Tampines Avenue 5",1.355336,103.93775450,Childcare
Changi General Hospital,East,529889,"2, Simei Street 3",1.340400,103.94950000,Hospital
En-Naeem Mosque Kindergarten,East,535136,"120, Tampines Road",1.361000,103.89042130,Childcare
Cedan Kindergarten,East,820198,"198, Punggol Field",1.399460,103.90415130,Childcare
PCF Sparkletots Preschool @ Yew Tee Blk 608 (KN),West,680608,"608, Choa Chu Kang Street 62",1.416891,103.777307,Childcare
PCF Sparkletots Preschool @ Yew Tee Blk 690D (KN),West,684690,"690D, Choa Chu Kang Crescent",1.416891,103.777307,Childcare
PCF Sparkletots Preschool @ Marsiling Blk 32 (KN),North,730032,"32, Marsiling Drive",1.443378,103.770604,Childcare
PCF Sparkletots Preschool @ Marsiling Blk 302 (KN),North,730302,"302, Woodlands Street 31",1.430981,103.771735,Childcare
PCF Sparkletots Preschool @ Woodgrove Blk 364 (KN),North,730364,"364, Woodlands Avenue 5",1.434060,103.784551,Childcare
Putra - Putri Kindergarten,North,730408,"408, Woodlands Street 41",1.428852,103.770469,Childcare
Hanis Montessori Kindergarten (Woodlands),North,730424,"424, Woodlands Street 41",1.428852,103.770469,Childcare
PCF Sparkletots Preschool @ Admiralty Blk 501 (KN),North,730501,"501, Woodlands Drive 14",1.432983,103.789858,Childcare
PCF Sparkletots Preschool @ Admiralty Blk 581 (DS),North,730581,"581, Woodlands Drive 16",1.430134,103.794159,Childcare
PCF Sparkletots Preschool @ Woodlands Blk 652 (KN),North,730652,"652, Woodlands Ring Road",1.438101,103.797397,Childcare
PCF Sparkletots Preschool @ Woodlands Blk 730 (KN),North,730730,"730, Woodlands Circle",1.442512,103.795654,Childcare
PCF Sparkletots Preschool @ Sembawang Blk 789 (KN),North,730789,"789, Woodlands Avenue 6",1.443442,103.800193,Childcare
PCF Sparkletots Preschool @ Woodlands Blk 875 (KN),North,730875,"875, Woodlands Street 82",1.442563,103.787408,Childcare
PCF Sparkletots Preschool @ Woodgrove Blk 899B (KN),North,731899,"899B, Woodlands Drive 50",1.438312,103.788785,Childcare
PCF Sparkletots Preschool @ Admiralty Blk 687B (DS),North,732687,"687B, Woodlands Drive 75",1.441774,103.805204,Childcare
Evangel Kindergarten,North,738488,"1, Woodlands Street 83",1.439408,103.789619,Childcare
New Life Kindergarten,North,739147,"10, Marsiling Lane",1.444766,103.775132,Childcare
An - Nur Mosque Kindergarten,North,739983,"6, Admiralty Road",1.440767,103.769770,Childcare
PCF Sparkletots Preschool @ Gambas Blk 309 (KN),North,750309,"309, Canberra  Road",1.445288,103.817175,Childcare
PCF Sparkletots Preschool @ Canberra Blk 330 (DS),North,750330,"330, Sembawang Close",1.445288,103.817175,Childcare
PCF Sparkletots Preschool @ Canberra Blk 487 (KN),North,750487,"487, Admiralty Link",1.445288,103.817175,Childcare
Zulfa Kindergarten @ Sembawang Mart PTE LTD,North,750511,"511, Canberra Road",1.453724,103.817354,Childcare
Hope Community Kindergarten (Sembawang),North,757614,"55, Sembawang Drive",1.454723,103.812621,Childcare
Little Leader Kindergarten,North,760102,"102, Yishun Avenue 5",1.430859,103.826648,Childcare
Tots Town Preschool @ Yishun,North,760102,"102, Yishun Avenue 5",1.430859,103.826648,Childcare
PCF Sparkletots Preschool @ Chong Pang Blk 107 (KN),North,760107,"107, Yishun Ring Road",1.432263,103.825116,Childcare
PCF Sparkletots Preschool @ Chong Pang Blk 122 (KN),North,760122,"122, Yishun Street 11",1.434940,103.828722,Childcare
PCF Sparkletots Preschool @ Nee Soon East Blk 223 (KN),North,760223,"223, Yishun St 21",1.432367,103.838541,Childcare
PCF Sparkletots Preschool @ Nee Soon East Blk 367 (KN),North,760367,"367, Yishun Ring Road",1.432367,103.838541,Childcare
PCF Sparkletots Preschool @ Gambas Blk 408 (KN),North,760408,"408, Yishun Avenue 6",1.422118,103.767587,Childcare
PCF Sparkletots Preschool @ Nee Soon Central Blk 646 (DS),North,760646,"646, Yishun Street 61",1.422119,103.835439,Childcare
PCF Sparkletots Preschool @ Nee Soon East Blk 671 (DS),North,760671,"671, Yishun Avenue 4",1.419273,103.839320,Childcare
First Step Montessori House,North,760716,"716, Yishun Street 71",1.426223,103.825575,Childcare
PCF Sparkletots Preschool @ Nee Soon Central Blk 737 (KN),North,760737,"737, Yishun Street 72",1.429059,103.830197,Childcare
MRC Kindergarten (Yishun South),North,760848,"848, Yishun Street 81",1.416239,103.833112,Childcare
PCF Sparkletots Preschool @ Nee Soon South Blk 875 (DS),North,760875,"875, Yishun St 81",1.428413,103.801756,Childcare
Iman Kindergarten (Yishun),North,760934,"934, Yishun Central 1",1.425726,103.834418,Childcare
Yishun Community Hospital,North,768024,"2, Yishun Central 2",1.423730,103.835200,Hospital
Edelweiss Kindergarten Sembawang Presbyterian Church,North,768443,"10B, Jalan Jeruju",1.441317,103.823468,Childcare
Khoo Teck Puat Hospital,North,768828,"90, Yishun Central",1.424600,103.838200,Hospital
Darul Makmur Mosque Kindergarten,North,769099,"950, Yishun Avenue 2",1.436862,103.832160,Childcare
My Montessori Preschool @ Bullion,North,789100,"172, Lentor Loop",1.391354,103.834155,Childcare
Foochow Methodist Church Kindergarten,North-East,218577,"90, Race Course Road",1.309086,103.849353,Childcare
Elim Kindergarten,North-East,328182,"1079, Serangoon Road",1.323894,103.862076,Childcare
Ren Ci Community Hospital,North-East,329562,"71, Irrawaddy Rd",1.323020,103.843630,Hospital
Mount Elizabeth Novena Hospital,North-East,329563,"38, Irrawaddy Rd",1.322100,103.844200,Hospital
PCF Sparkletots Preschool @ Potong Pasir Blk 143 (DS),North-East,350143,"143, Potong Pasir Avenue 2",1.332189,103.864803,Childcare
Totsville Montessori Kindergarten,North-East,510720,"720, Pasir Ris Street 72",1.381769,103.918972,Childcare
PCF Sparkletots Preschool @ Paya Lebar Blk 23 (KN),North-East,530023,"23, Hougang Avenue 3",1.364398,103.889626,Childcare
PCF Sparkletots Preschool @ Paya Lebar Blk 125 (KN),North-East,530125,"125, Hougang Avenue 1",1.364398,103.883060,Childcare
Brainy Bunch International Montessori,North-East,530247,"247, Hougang Avenue 3",1.359128,103.889353,Childcare
PCF Sparkletots Preschool @ Hougang Blk 328 (DS),North-East,530328,"328, Hougang Avenue 5",1.368746,103.894263,Childcare
PCF Sparkletots Preschool @ Bedok Reservoir Punggol Blk 414 (DS),North-East,530414,"414, Hougang Avenue 10",1.388472,103.882346,Childcare
PCF Sparkletots Preschool @ Sengkang South Blk 452 (DS),North-East,530452,"452, Hougang Avenue 10",1.378620,103.894137,Childcare
PCF Sparkletots Preschool @ Sengkang South Blk 535 (DS),North-East,530535,"535, Hougang Street 52",1.376558,103.888001,Childcare
Al-Nasry @ Sengkang South,North-East,530552,"552, Hougang Street 51",1.378284,103.887317,Childcare
The Montessori Playroom Kindergarten,North-East,530806,"806, Hougang Central",1.371098,103.891956,Childcare
Jenius Kindergarten (Hougang),North-East,530915,"915, Hougang Street 91",1.377504,103.881197,Childcare
PCF Sparkletots Preschool @ Jalan Kayu Blk 987C (DS),North-East,532987,"987C, Buangkok Green",1.380031,103.876027,Childcare
Hanis Montessori Kindergarten (Kovan),North-East,534645,"777, Upper Serangoon Road",1.354778,103.876620,Childcare
Little Seed@St. Paul's Church Kindergarten,North-East,534682,"839, Upper Serangoon Road",1.358298,103.880184,Childcare
Living Sanctuary Kindergarten,North-East,538728,"2, Hougang Street 22",1.355923,103.889053,Childcare
Nativity Church Kindergarten,North-East,538791,"98, Hougang Avenue 8",1.374516,103.89576530,Childcare
PCF Sparkletots Preschool @ Punggol East Blk 103 (KN),North-East,540103,"103, Rivervale Walk",1.382449,103.899023,Childcare
PCF Sparkletots Preschool @ Punggol East Blk 143 (KN),North-East,540143,"143, Rivervale Drive",1.390138,103.903550,Childcare
PCF Sparkletots Preschool @ Sengkang Central Blk 206A (KN),North-East,541206,"206A, Compassvale Lane",1.386435,103.894664,Childcare
PCF Sparkletots Preschool @ Sengkang West Blk 330A (DS),North-East,541330,"330A, Anchorvale Street",1.396608,103.887779,Childcare
PCF Sparkletots Preschool @ Punggol East Blk 187B (KN),North-East,542187,"187B, Rivervale Drive",1.394350,103.903808,Childcare
PCF Sparkletots Preschool @ Sengkang Central Blk 277B (KN),North-East,542277,"277B, Compassvale Link",1.384204,103.892274,Childcare
PCF Sparkletots Preschool @ Sengkang Central Blk 292B (KN),North-East,542292,"292B, Compassvale Street",1.395418,103.896550,Childcare
Sengkang Community Hospital,North-East,544835,"1, Anchorvale Street",1.396470,103.891230,Hospital
Sengkang General Hospital,North-East,544886,"110, Sengkang E Way",1.395500,103.893400,Hospital
Sengkang Methodist Children Centre,North-East,545056,"31, Anchorvale Road",1.392229,103.884242,Childcare
Mahad Al-Nasry @ Sengkang kindergarten,North-East,546646,"415, Punggol Road",1.391832,103.898920,Childcare
St. Anne's Church Kindergarten,North-East,548593,"66, Sengkang East Way",1.391528,103.899607,Childcare
Catholic Kindergarten,North-East,549404,"15, Flower Road",1.359969,103.879541,Childcare
PCF Sparkletots Preschool @ Serangoon Blk 125 (KN),North-East,550125,"125, Serangoon North Avenue 1",1.366484,103.870127,Childcare
PCF Sparkletots Preschool @ Serangoon Blk 226 (KN),North-East,550226,"226, Serangoon Avenue 4",1.356871,103.868767,Childcare
PCF Sparkletots Preschool @ Jalan Kayu Blk 518 (DS),North-East,550518,"518, Serangoon North Avenue 4",1.375882,103.871850,Childcare
Al - Istiqamah Mosque Kindergarten,North-East,555876,"2, Serangoon North Avenue 2",1.369197,103.873313,Childcare
Bethesda (Bukit Arang) Kindergarten,North-East,556110,"114, Serangoon Avenue 3",1.349397,103.865206,Childcare
PCF Sparkletots Preschool @ Teck Ghee Blk 301 (DS),North-East,560301,"301, Ang Mo Kio Street 31",1.365834,103.854863,Childcare
PCF Sparkletots Preschool @ Cheng San-Seletar Blk 435 (KN),North-East,560435,"435, Ang Mo Kio Avenue 10",1.365833,103.787011,Childcare
PCF Sparkletots Preschool @ Teck Ghee Blk 466 (KN),North-East,560466,"466, Ang Mo Kio Avenue 10",1.365834,103.854863,Childcare
PCF Sparkletots Preschool @ Jalan Kayu Blk 556 (DS),North-East,560556,"556, Ang Mo Kio Avenue 10",1.382241,103.860005,Childcare
PCF Sparkletots Preschool @ Yio Chu Kang Blk 644 (KN),North-East,560644,"644, Ang Mo Kio Ave 4",1.379137,103.838773,Childcare
Ang Mo Kio Methodist Church Kindergarten,North-East,569383,"1, Ang Mo Kio Street 21",1.367176,103.833275,Childcare
Al - Muttaqin Mosque Kindergarten,North-East,569844,"5140, Ang Mo Kio Avenue 6",1.371735,103.837505,Childcare
Banyan Tree Education @ AMK PTE. LTD.,North-East,569880,"7030, Ang Mo Kio Ave 5",1.377618,103.874019,Childcare
Bethesda (Ang Mo Kio) Kindergarten,North-East,569898,"601, Ang Mo Kio Ave 4",1.374759,103.835168,Childcare
PCF Sparkletots Preschool @ Sengkang West Blk 416A (DS),North-East,791416,"416A, Fernvale Link",1.390557,103.877711,Childcare
Brain Buttons Kindergarten,North-East,805939,"357, Yio Chu Kang Road",1.389040,103.861904,Childcare
PCF Sparkletots Preschool @ Punggol West Blk 271A (KN),North-East,821271,"271A, Punggol Walk",1.403710,103.898276,Childcare
PCF Sparkletots Preschool @ Punggol North Blk 663A (DS),North-East,821663,"663A, Punggol Drive",1.401848,103.907520,Childcare
PCF Sparkletots Preschool @ Punggol West Blk 308B (DS),North-East,822308,"308B, Punggol Walk",1.403710,103.898276,Childcare
PCF Sparkletots Preschool @ Punggol North Blk 171C (KN),North-East,823171,"171C, Edgedale Plains",1.394762,103.910954,Childcare
PCF Sparkletots Preschool @ Punggol North Blk 105D (KN),North-East,824105,"105D, Edgefield Plains",1.396997,103.903380,Childcare
PCF Sparkletots Preschool @ Punggol North Blk 174D (KN),North-East,824174,"174D, Edgedale Plains",1.397229,103.907735,Childcare
Dayspring Kindergarten @ Marina Country Club,North-East,828670,"11, Northshore Drive",1.416066,103.896873,Childcare
White Lodge West Coast Pte Ltd,West,118141,"9, South Buona Vista Road",1.280059,103.784233,Childcare
National University Hospital,West,119074,"5, Lower Kent Ridge Rd",1.293700,103.783200,Hospital
PCF Sparkletots Preschool @ Clementi Blk 330 (DS),West,120330,"330, Clementi Avenue 2",1.313691,103.766610,Childcare
PCF Sparkletots Preschool @ West Coast Blk 728 (KN),West,120728,"728, Clementi West Street 2",1.305444,103.761532,Childcare
PCF Sparkletots Preschool @ Bukit Timah Blk 312B (DS),West,122312,"312B, Clementi Avenue 4",1.319712,103.762256,Childcare
Clementi Woods Kindergarten LLP,West,127370,"152, West Coast Road",1.302750,103.763649,Childcare
PCF Sparkletots Preschool @ Telok Blangah Blk 2 (KN),West,130002,"2, Dover Road",1.302517,103.781048,Childcare
Arise Kindergarten,West,589240,"2B, Hindhede Road",1.344603,103.773489,Childcare
Early Years Montessori,West,597475,"16, Sunset Drive",1.325740,103.764450,Childcare
Glory Kindergarten,West,597611,"11, Pei Wah Avenue",1.338312,103.773352,Childcare
Canossian Convent Kindergarten,West,598454,"100, Jalan Merbok",1.345336,103.762799,Childcare
PCF Sparkletots Preschool @ Ayer Rajah Blk 48 (DS),West,600048,"48, Teban Gardens Road",1.320538,103.737704,Childcare
PCF Sparkletots Preschool @ Yuhua Blk 251 (KN),West,600251,"251, Jurong East Street 24",1.343100,103.731040,Childcare
PCF Sparkletots Preschool @ Yuhua Blk 317 (KN),West,600317,"317, Jurong East Street 31",1.347063,103.722142,Childcare
PCF Sparkletots Preschool @ Bukit Batok East Blk 285C (KN),West,603285,"285C, Toh Guan Road",1.337910,103.744157,Childcare
Calvary Pandan Kindergarten,West,609337,"201, Pandan Gardens",1.321170,103.743835,Childcare
Galilee Kindergarten,West,609338,"202, Pandan Gardens",1.321751,103.743911,Childcare
Al - Mukminin Mosque Kindergarten,West,609603,"271, Jurong East Street 21",1.339214,103.739245,Childcare
Jurong Community Hospital,West,609606,"1, Jurong East Street 21",1.332940,103.747080,Hospital
Ng Teng Fong General Hospital,West,609606,"1, Jurong East Street 21",1.335040,103.743990,Hospital
Seventh-day Adventist Kindergarten,West,609648,"90, Jurong East Street 13",1.343138,103.737363,Childcare
PCF Sparkletots Preschool @ Taman Jurong Blk 352 (DS),West,610352,"352, Kang Ching Road",1.339223,103.718086,Childcare
Assyakirin Mosque Kindergarten,West,618617,"550, Yung An Road",1.335581,103.717447,Childcare
Jurong Calvary Kindergarten,West,618720,"1, Tao Ching Road",1.333276,103.721373,Childcare
Jurong Christian Church Kindergarten,West,618744,"2, Tah Ching Road",1.336815,103.720037,Childcare
PCF Sparkletots Preschool @ Boon Lay Blk 207 (DS),West,640207,"207, Boon Lay Place",1.346640,103.711431,Childcare
PCF Sparkletots Preschool @ Boon Lay Blk 262 (KN),West,640262,"262, Boon Lay Drive",1.344706,103.705088,Childcare
Morning Glory Preschool,West,640414,"414, Jurong West Street 42",1.352812,103.723968,Childcare
PCF Sparkletots Preschool @ Jurong Spring Blk 465 (KN),West,640465,"465, Jurong West Street 41",1.352987,103.716392,Childcare
PCF Sparkletots Preschool @ Jurong Central Blk 490 (KN),West,640490,"490, Jurong West Avenue 1",1.348577,103.728766,Childcare
PCF Sparkletots Preschool @ Boon Lay Blk 631 (KN),West,640631,"631, Jurong West Street 65",1.343583,103.698086,Childcare
PCF Sparkletots Preschool @ Pioneer Blk 642 (KN),West,640642,"642, Jurong West Street 61",1.340431,103.693684,Childcare
Zulfa Kindergarten,West,640717,"717, Jurong West Street 71",1.340431,103.693684,Childcare
Elite Learning Kindergarten Pte Ltd,West,640720,"720, Jurong West Avenue 5",1.344390,103.695219,Childcare
Evelyn's Schoolhouse,West,640735,"735, Jurong West St 75",1.345968,103.699008,Childcare
Al-Nasry @ Jurong West Kindergarten,West,640743,"743, Jurong West Street 73",1.347175,103.697323,Childcare
PCF Sparkletots Preschool @ Hong Kah North Blk 750 (KN),West,640750,"750, Jurong West Street 73",1.347990,103.697275,Childcare
PCF Sparkletots Preschool @ Nanyang Blk 934 (KN),West,640934,"934, Jurong West Street 91",1.342863,103.690638,Childcare
PCF Sparkletots Preschool @ Pioneer Blk 665A (KN),West,641665,"665A, Jurong West Street 64",1.339949,103.701076,Childcare
PCF Sparkletots Preschool @ Pioneer Blk 654B (KN),West,642654,"654B, Jurong West Street 61",1.336016,103.697893,Childcare
PCF Sparkletots Preschool @ Pioneer Blk 662B (KN),West,642662,"662B, Jurong West Street 64",1.337205,103.694361,Childcare
PCF Sparkletots Preschool @ Hong Kah North Blk 276D (KN),West,644276,"276D, Jurong West Street 25",1.353458,103.695648,Childcare
Centre of New Life Kindergarten,West,649151,"5, Jurong West Street 74",1.349652,103.690420,Childcare
St. Francis Of Assisi Kindergarten (Jurong West),West,649368,"47, Jurong West Street 42",1.351702,103.714240,Childcare
St. Francis Of Assisi Kindergarten (Boon Lay),West,649964,"200, Boon Lay Avenue",1.348061,103.708943,Childcare
PCF Sparkletots Preschool @ Bukit Batok Blk 148 (KN),West,650148,"148, Bukit Batok West Avenue 6",1.349290,103.741695,Childcare
PCF Sparkletots Preschool @ Bukit Batok Blk 180 (KN),West,650180,"180, Bukit Batok West Avenue 8",1.345505,103.740692,Childcare
PCF Sparkletots Preschool @ Bukit Batok East Blk 241 (KN),West,650241,"241, Bukit Batok East Avenue 5",1.350917,103.752269,Childcare
PCF Sparkletots Preschool @ Hong Kah North Blk 319 (KN),West,650319,"319, Bukit Batok Street 33",1.361222,103.737609,Childcare
PCF Sparkletots Preschool @ Hong Kah North Blk 338 (KN),West,650338,"338, Bukit Batok Street 34",1.363603,103.748400,Childcare
PCF Sparkletots Preschool @ Bukit Gombak Blk 535 (DS),West,650535,"535, Bukit Batok Street 52",1.354954,103.748042,Childcare
PCF Sparkletots Preschool @ Bukit Batok East Blk 289G (KN),West,656289,"289G, Bukit Batok Street 25",1.329491,103.746852,Childcare
Grace House Kindergarten,West,659125,"1, Bukit Batok West Avenue 4",1.329491,103.746852,Childcare
Ar - Raudhah Mosque Kindergarten,West,659919,"30, Bukit Batok East Avenue 2",1.351637,103.753855,Childcare
PCF Sparkletots Preschool @ Bukit Panjang Blk 111 (KN),West,670111,"111, Gangsa Road",1.378146,103.766008,Childcare
PCF Sparkletots Preschool @ Bukit Panjang Blk 226 (KN),West,670226,"226, Pending Road",1.375289,103.770146,Childcare
PCF Sparkletots Preschool @ Bukit Panjang Blk 422 (KN),West,670422,"422, Fajar Road",1.385016,103.767396,Childcare
PCF Sparkletots Preschool @ Zhenghua Blk 528 (KN),West,670528,"528, Jelapang Road",1.385218,103.762739,Childcare
PCF Sparkletots Preschool @ Cashew Blk 545 (KN),West,670545,"545, Bukit Panjang Ring Road",1.383066,103.760966,Childcare
PCF Sparkletots Preschool @ Zhenghua Blk 455A (KN),West,671455,"455A, Segar Road",1.387802,103.768592,Childcare
Bukit Panjang Methodist Church Kindergarten,West,678099,"496, Upper Bukit Timah Road",1.361161,103.765433,Childcare
St. Joseph's Church Kindergarten,West,679331,"600, Upper Bukit Timah Road",1.367902,103.765954,Childcare
Al - Iman Mosque Kindergarten,West,679943,"10, Bukit Panjang Ring Road",1.378212,103.770405,Childcare
PCF Sparkletots Preschool @ Chua Chu Kang Blk 10 (KN),West,680010,"10, Teck Whye Avenue",1.380253,103.751037,Childcare
PCF Sparkletots Preschool @ Keat Hong Blk 295 (DS),West,680295,"295, Choa Chu Kang Avenue 2",1.378179,103.739861,Childcare
PCF Sparkletots Preschool @ Keat Hong Blk 411 (DS),West,680411,"411, Choa Chu Kang Avenue 3",1.379886,103.737857,Childcare
Zulfa Kindergarten @ Choa Chu Kang,West,680445,"445, Choa Chu Kang Avenue 4",1.380400,103.734618,Childcare
Iman Kindergarten (CCK),West,680530,"530, Choa Chu Kang Street 51",1.392674,103.739661,Childcare
Hanis Montessori Kindergarten (Choa Chu Kang),West,680707,"707, Choa Chu Kang Street 53",1.390680,103.744840,Childcare
PCF Sparkletots Preschool @ Keat Hong Blk 801 (DS),West,680801,"801, Keat Hong Close",1.375246,103.740775,Childcare
Methodist Church Of The Incarnation (MCI) Kindergarten,West,688798,"31, Teck Whye Lane",1.379770,103.744553,Childcare
Al - Khair Mosque Kindergarten,West,688847,"1, Teck Whye Crescent",1.382596,103.741605,Childcare
Choa Chu Kang Bible Centre Kindergarten,West,689284,"10, Choa Chu Kang Street 52",1.394727,103.735148,Childcare
CGM Kindergarten,West,689457,"172, Choa Chu Kang Avenue 1",1.377069,103.737978,Childcare
Hope Community Kindergarten (Choa Chu Kang),West,689907,"21, Choa Chu Kang Avenue 2",1.377780,103.732000,Childcare
